IRIDIUM 26              
1 24903U 97043A   25215.18351664  .00000295  00000+0  92729-4 0  9998
2 24903  86.3928  90.8769 0001956  83.8746 276.2674 14.37174273463491
IRIDIUM 22              
1 24907U 97043E   25215.22191569  .00000290  00000+0  93200-4 0  9993
2 24907  86.3935  94.4426 0002055  88.2603 271.8829 14.35983294463521
DUMMY MASS 1            
1 24925U 97048A   25215.79216891  .00000357  00000+0  36738-4 0  9993
2 24925  86.3351 113.3241 0006165 359.5783   0.5435 14.87019043512443
DUMMY MASS 2            
1 24926U 97048B   25215.49303412  .00000376  00000+0  39070-4 0  9990
2 24926  86.3353 115.0788 0007450   9.6824 350.4543 14.86770759511935
IRIDIUM 29              
1 24944U 97051A   25215.29773252  .00000374  00000+0  12082-3 0  9996
2 24944  86.3977 124.1464 0002329  88.3154 271.8310 14.36499904460036
IRIDIUM 33              
1 24946U 97051C   25215.26157171  .00000287  00000+0  94218-4 0  9996
2 24946  86.3894 123.4259 0005844 292.1334  67.9241 14.34917311459490
IRIDIUM 28              
1 24948U 97051E   25215.24151066  .00000312  00000+0  97836-4 0  9991
2 24948  86.3980 121.6590 0001723  77.8761 282.2629 14.37413306460605
IRIDIUM 36              
1 24967U 97056C   25215.75431457  .00000339  00000+0  10651-3 0  9996
2 24967  86.4019 153.0333 0002028  90.2376 269.9054 14.37640664459054
